FLOCK 4G-13             
1 62621U 25009N   26068.70638971  .00053076  00000+0  16695-2 0  9995
2 62621  97.4019 151.0918 0003801 292.7207  67.3633 15.32770015 63700
STARLINK-34634          
1 65079U 25167B   26068.29447529  .00038113  00000+0  12924-2 0  9997
2 65079  53.1605  26.1097 0001046  89.7103 270.4017 15.30199395 33454
